start=new Date('2022-12-14T00:00:00.000Z').valueOf();
sats=[{"OBJECT_NAME":"STARLINK-1148","SEMIMAJOR_AXIS":"6925.375","ECCENTRICITY":"0.00013700","EPOCH":"2022-12-13T13:36:36.428256","TLE_LINE1":"1 45052U 20006J   22347.56708829 -.00000252  00000-0  19821-5 0  9993","PERIOD":"95.593","RA_OF_ASC_NODE":"193.3660","SITE":"AFETR","NORAD_CAT_ID":"45052","GP_ID":"220274175","OBJECT_ID":"2020-006J","ARG_OF_PERICENTER":"78.5751","TIME_SYSTEM":"UTC","COUNTRY_CODE":"US","REV_AT_EPOCH":"15828","BSTAR":"0.00000198210000","MEAN_ELEMENT_THEORY":"SGP4","LAUNCH_DATE":"2020-01-29","ELEMENT_SET_NO":"999","OBJECT_TYPE":"PAYLOAD","MEAN_ANOMALY":"281.5392","CLASSIFICATION_TYPE":"U","MEAN_MOTION":"15.06391344","MEAN_MOTION_DDOT":"0.0000000000000","PERIAPSIS":"546.291","TLE_LINE2":"2 45052  53.0538 193.3660 0001370  78.5751 281.5392 15.06391344158284","CENTER_NAME":"EARTH","RCS_SIZE":"LARGE","EPHEMERIS_TYPE":"0","INCLINATION":"53.0538","DECAY_DATE":null,"MEAN_MOTION_DOT":"-0.00000252","REF_FRAME":"TEME","APOAPSIS":"548.189","FILE":"3697190"},{"EPOCH":"2022-12-13T12:49:33.721248","ECCENTRICITY":"0.00035670","SEMIMAJOR_AXIS":"6883.949","OBJECT_NAME":"STARLINK-1155","PERIOD":"94.736","RA_OF_ASC_NODE":"172.2961","TLE_LINE1":"1 45053U 20006K   22347.53441807  .00007511  00000-0  35872-3 0  9997","COUNTRY_CODE":"US","REV_AT_EPOCH":"15853","OBJECT_ID":"2020-006K","TIME_SYSTEM":"UTC","ARG_OF_PERICENTER":"134.4070","NORAD_CAT_ID":"45053","GP_ID":"220274925","SITE":"AFETR","MEAN_ELEMENT_THEORY":"SGP4","BSTAR":"0.00035872000000","LAUNCH_DATE":"2020-01-29","PERIAPSIS":"503.358","MEAN_MOTION_DDOT":"0.0000000000000","MEAN_MOTION":"15.20009606","CLASSIFICATION_TYPE":"U","MEAN_ANOMALY":"225.7217","OBJECT_TYPE":"PAYLOAD","ELEMENT_SET_NO":"999","INCLINATION":"53.0040","RCS_SIZE":"LARGE","CENTER_NAME":"EARTH","EPHEMERIS_TYPE":"0","TLE_LINE2":"2 45053  53.0040 172.2961 0003567 134.4070 225.7217 15.20009606158536","FILE":"3697190","APOAPSIS":"508.269","DECAY_DATE":null,"MEAN_MOTION_DOT":"0.00007511","REF_FRAME":"TEME"},{"LAUNCH_DATE":"2020-01-29","OBJECT_TYPE":"PAYLOAD","ELEMENT_SET_NO":"999","MEAN_ANOMALY":"291.2602","CLASSIFICATION_TYPE":"U","MEAN_MOTION_DDOT":"0.0000000000000","MEAN_MOTION":"15.06403256","PERIAPSIS":"546.102","TLE_LINE2":"2 45054  53.0557 194.5853 0001590  68.8557 291.2602 15.06403256158248","EPHEMERIS_TYPE":"0","CENTER_NAME":"EARTH","RCS_SIZE":"LARGE","INCLINATION":"53.0557","MEAN_MOTION_DOT":"0.00001002","REF_FRAME":"TEME","DECAY_DATE":null,"APOAPSIS":"548.305","FILE":"3697190","OBJECT_NAME":"STARLINK-1156","SEMIMAJOR_AXIS":"6925.339","ECCENTRICITY":"0.00015900","EPOCH":"2022-12-13T07:09:08.195328","TLE_LINE1":"1 45054U 20006L   22347.29801152  .00001002  00000-0  86124-4 0  9990","RA_OF_ASC_NODE":"194.5853","PERIOD":"95.592","SITE":"AFETR","GP_ID":"220275163","NORAD_CAT_ID":"45054","TIME_SYSTEM":"UTC","ARG_OF_PERICENTER":"68.8557","OBJECT_ID":"2020-006L","REV_AT_EPOCH":"15824","COUNTRY_CODE":"US","BSTAR":"0.00008612400000","MEAN_ELEMENT_THEORY":"SGP4"},{"INCLINATION":"53.0536","CENTER_NAME":"EARTH","RCS_SIZE":"LARGE","EPHEMERIS_TYPE":"0","TLE_LINE2":"2 45057  53.0536 193.3323 0001746  56.7614 303.3542 15.06399008158292","FILE":"3697190","APOAPSIS":"548.426","DECAY_DATE":null,"MEAN_MOTION_DOT":"-0.00000188","REF_FRAME":"TEME","LAUNCH_DATE":"2020-01-29","PERIAPSIS":"546.007","MEAN_MOTION_DDOT":"0.0000000000000","MEAN_MOTION":"15.06399008","CLASSIFICATION_TYPE":"U","MEAN_ANOMALY":"303.3542","OBJECT_TYPE":"PAYLOAD","ELEMENT_SET_NO":"999","COUNTRY_CODE":"US","REV_AT_EPOCH":"15829","OBJECT_ID":"2020-006P","TIME_SYSTEM":"UTC","ARG_OF_PERICENTER":"56.7614","NORAD_CAT_ID":"45057","GP_ID":"220274424","SITE":"AFETR","MEAN_ELEMENT_THEORY":"SGP4","BSTAR":"0.00000631280000","EPOCH":"2022-12-13T13:52:31.763424","ECCENTRICITY":"0.00017460","SEMIMAJOR_AXIS":"6925.352","OBJECT_NAME":"STARLINK-1159","PERIOD":"95.592","RA_OF_ASC_NODE":"193.3323","TLE_LINE1":"1 45057U 20006P   22347.57814541 -.00000188  00000-0  63128-5 0  9995"},{"CLASSIFICATION_TYPE":"U","MEAN_ANOMALY":"297.3289","OBJECT_TYPE":"PAYLOAD","ELEMENT_SET_NO":"999","PERIAPSIS":"546.074","MEAN_MOTION":"15.06401777","MEAN_MOTION_DDOT":"0.0000000000000","LAUNCH_DATE":"2020-01-29","DECAY_DATE":null,"REF_FRAME":"TEME","MEAN_MOTION_DOT":"0.00000988","FILE":"3697190","APOAPSIS":"548.342","TLE_LINE2":"2 45058  53.0523 193.3687 0001638  62.7867 297.3289 15.06401777158296","INCLINATION":"53.0523","CENTER_NAME":"EARTH","RCS_SIZE":"LARGE","EPHEMERIS_TYPE":"0","RA_OF_ASC_NODE":"193.3687","PERIOD":"95.592","TLE_LINE1":"1 45058U 20006Q   22347.57077836  .00000988  00000-0  85216-4 0  9992","SEMIMAJOR_AXIS":"6925.343","OBJECT_NAME":"STARLINK-1162","EPOCH":"2022-12-13T13:41:55.250304","ECCENTRICITY":"0.00016380","MEAN_ELEMENT_THEORY":"SGP4","BSTAR":"0.00008521600000","GP_ID":"220274673","NORAD_CAT_ID":"45058","SITE":"AFETR","COUNTRY_CODE":"US","REV_AT_EPOCH":"15829","OBJECT_ID":"2020-006Q","TIME_SYSTEM":"UTC","ARG_OF_PERICENTER":"62.7867"},{"PERIOD":"95.592","RA_OF_ASC_NODE":"195.9447","TLE_LINE1":"1 45059U 20006R   22346.99577026  .00000816  00000-0  73649-4 0  9991","SEMIMAJOR_AXIS":"6925.330","OBJECT_NAME":"STARLINK-1165","EPOCH":"2022-12-12T23:53:54.550464","ECCENTRICITY":"0.00016460","MEAN_ELEMENT_THEORY":"SGP4","BSTAR":"0.00007364900000","GP_ID":"220275425","NORAD_CAT_ID":"45059","SITE":"AFETR","REV_AT_EPOCH":"15820","COUNTRY_CODE":"US","TIME_SYSTEM":"UTC","ARG_OF_PERICENTER":"75.6729","OBJECT_ID":"2020-006R","CLASSIFICATION_TYPE":"U","MEAN_ANOMALY":"284.4442","OBJECT_TYPE":"PAYLOAD","ELEMENT_SET_NO":"999","PERIAPSIS":"546.055","MEAN_MOTION_DDOT":"0.0000000000000","MEAN_MOTION":"15.06406002","LAUNCH_DATE":"2020-01-29","MEAN_MOTION_DOT":"0.00000816","REF_FRAME":"TEME","DECAY_DATE":null,"FILE":"3697190","APOAPSIS":"548.335","TLE_LINE2":"2 45059  53.0523 195.9447 0001646  75.6729 284.4442 15.06406002158203","INCLINATION":"53.0523","EPHEMERIS_TYPE":"0","CENTER_NAME":"EARTH","RCS_SIZE":"LARGE"},{"SITE":"AFETR","NORAD_CAT_ID":"45060","GP_ID":"220275663","OBJECT_ID":"2020-006S","ARG_OF_PERICENTER":"54.5619","TIME_SYSTEM":"UTC","COUNTRY_CODE":"US","REV_AT_EPOCH":"15820","BSTAR":"-0.00097937000000","MEAN_ELEMENT_THEORY":"SGP4","OBJECT_NAME":"STARLINK-1166","SEMIMAJOR_AXIS":"6925.118","ECCENTRICITY":"0.00012820","EPOCH":"2022-12-12T23:48:34.007328","TLE_LINE1":"1 45060U 20006S   22346.99206027 -.00014869  00000-0 -97937-3 0  9993","PERIOD":"95.587","RA_OF_ASC_NODE":"195.9632","TLE_LINE2":"2 45060  53.0551 195.9632 0001282  54.5619 305.5489 15.06475190158202","CENTER_NAME":"EARTH","RCS_SIZE":"LARGE","EPHEMERIS_TYPE":"0","INCLINATION":"53.0551","DECAY_DATE":null,"MEAN_MOTION_DOT":"-0.00014869","REF_FRAME":"TEME","APOAPSIS":"547.871","FILE":"3697190","LAUNCH_DATE":"2020-01-29","OBJECT_TYPE":"PAYLOAD","ELEMENT_SET_NO":"999","MEAN_ANOMALY":"305.5489","CLASSIFICATION_TYPE":"U","MEAN_MOTION":"15.06475190","MEAN_MOTION_DDOT":"0.0000000000000","PERIAPSIS":"546.095"},{"BSTAR":"0.00002765400000","MEAN_ELEMENT_THEORY":"SGP4","SITE":"AFETR","GP_ID":"220273926","NORAD_CAT_ID":"45061","TIME_SYSTEM":"UTC","ARG_OF_PERICENTER":"63.9007","OBJECT_ID":"2020-006T","REV_AT_EPOCH":"15820","COUNTRY_CODE":"US","TLE_LINE1":"1 45061U 20006T   22346.99945103  .00000130  00000-0  27654-4 0  9993","PERIOD":"95.593","RA_OF_ASC_NODE":"195.9104","OBJECT_NAME":"STARLINK-1169","SEMIMAJOR_AXIS":"6925.388","ECCENTRICITY":"0.00019130","EPOCH":"2022-12-12T23:59:12.568992","MEAN_MOTION_DOT":"0.00000130","REF_FRAME":"TEME","DECAY_DATE":null,"APOAPSIS":"548.577","FILE":"3697190","TLE_LINE2":"2 45061  53.0540 195.9104 0001913  63.9007 296.2179 15.06387244158205","EPHEMERIS_TYPE":"0","CENTER_NAME":"EARTH","RCS_SIZE":"LARGE","INCLINATION":"53.0540","ELEMENT_SET_NO":"999","OBJECT_TYPE":"PAYLOAD","CLASSIFICATION_TYPE":"U","MEAN_ANOMALY":"296.2179","MEAN_MOTION_DDOT":"0.0000000000000","MEAN_MOTION":"15.06387244","PERIAPSIS":"545.928","LAUNCH_DATE":"2020-01-29"},{"BSTAR":"0.00008182900000","MEAN_ELEMENT_THEORY":"SGP4","SITE":"AFETR","NORAD_CAT_ID":"45062","GP_ID":"220274176","OBJECT_ID":"2020-006U","TIME_SYSTEM":"UTC","ARG_OF_PERICENTER":"59.0295","COUNTRY_CODE":"US","REV_AT_EPOCH":"15828","TLE_LINE1":"1 45062U 20006U   22347.51548356  .00000937  00000-0  81829-4 0  9991","PERIOD":"95.592","RA_OF_ASC_NODE":"193.6165","OBJECT_NAME":"STARLINK-1171","SEMIMAJOR_AXIS":"6925.348","ECCENTRICITY":"0.00016540","EPOCH":"2022-12-13T12:22:17.779584","DECAY_DATE":null,"MEAN_MOTION_DOT":"0.00000937","REF_FRAME":"TEME","APOAPSIS":"548.358","FILE":"3697190","TLE_LINE2":"2 45062  53.0545 193.6165 0001654  59.0295 301.0856 15.06400193158284","RCS_SIZE":"LARGE","CENTER_NAME":"EARTH","EPHEMERIS_TYPE":"0","INCLINATION":"53.0545","OBJECT_TYPE":"PAYLOAD","ELEMENT_SET_NO":"999","MEAN_ANOMALY":"301.0856","CLASSIFICATION_TYPE":"U","MEAN_MOTION_DDOT":"0.0000000000000","MEAN_MOTION":"15.06400193","PERIAPSIS":"546.068","LAUNCH_DATE":"2020-01-29"},{"ECCENTRICITY":"0.00015210","EPOCH":"2022-12-13T12:40:53.859360","OBJECT_NAME":"STARLINK-1133","SEMIMAJOR_AXIS":"6925.388","TLE_LINE1":"1 45064U 20006W   22347.52840115 -.00001628  00000-0 -90424-4 0  9993","RA_OF_ASC_NODE":"173.5557","PERIOD":"95.593","TIME_SYSTEM":"UTC","ARG_OF_PERICENTER":"72.2699","OBJECT_ID":"2020-006W","REV_AT_EPOCH":"15856","COUNTRY_CODE":"US","SITE":"AFETR","GP_ID":"220274926","NORAD_CAT_ID":"45064","BSTAR":"-0.00009042400000","MEAN_ELEMENT_THEORY":"SGP4","LAUNCH_DATE":"2020-01-29","MEAN_MOTION":"15.06387252","MEAN_MOTION_DDOT":"0.0000000000000","PERIAPSIS":"546.199","OBJECT_TYPE":"PAYLOAD","ELEMENT_SET_NO":"999","CLASSIFICATION_TYPE":"U","MEAN_ANOMALY":"287.8456","EPHEMERIS_TYPE":"0","CENTER_NAME":"EARTH","RCS_SIZE":"LARGE","INCLINATION":"53.0528","TLE_LINE2":"2 45064  53.0528 173.5557 0001521  72.2699 287.8456 15.06387252158565","APOAPSIS":"548.306","FILE":"3697190","MEAN_MOTION_DOT":"-0.00001628","REF_FRAME":"TEME","DECAY_DATE":null}];
